STARLINK-11442 [DTC]    
1 62885C 25024G   26179.18451389  .00058993  00000+0  45867-3 0  1792
2 62885  43.0002 235.0490 0001744 275.1694 271.4746 15.70784217    17
STARLINK-11365 [DTC]    
1 62886C 25024H   26179.27895833 -.00005156  00000+0 -40062-4 0  1797
2 62886  43.0003 234.5551 0001727 261.9510  69.3291 15.70832422    13
STARLINK-11436 [DTC]    
1 62887C 25024J   26179.21368056  .00052894  00000+0  41108-3 0  1794
2 62887  43.0002 235.1717 0001578 258.3130 333.2074 15.70797915    15
STARLINK-11438 [DTC]    
1 62888C 25024K   26179.23104167  .00041304  00000+0  32106-3 0  1790
2 62888  43.0002 234.8553 0001289 269.9104 144.9322 15.70800474    16
STARLINK-11391 [DTC]    
1 62889C 25024L   26179.16784722 -.01188200  00000+0 -91194-2 0  1795
2 62889  42.9989 235.2821 0001358 277.2417 116.8054 15.71711271    15
STARLINK-11431 [DTC]    
1 62890C 25024M   26179.26229167  .00014340  00000+0  11143-3 0  1792
2 62890  43.0000 235.4010 0001835 273.0374  23.2734 15.70819866    15
STARLINK-11435 [DTC]    
1 62891C 25024N   26179.17201389  .00039358  00000+0  30591-3 0  1793
2 62891  43.0000 235.8690 0001411 256.0609 279.1882 15.70802468    12
STARLINK-32878          
1 62892C 25024P   26179.18868056  .00048723  00000+0  17655-2 0  1796
2 62892  43.0037  61.4585 0001541 265.3179 100.9269 15.27538962    15
STARLINK-32892          
1 62893C 25024Q   26179.18868056  .00082124  00000+0  29732-2 0  1799
2 62893  43.0038  61.5054 0001504 274.7942  70.1970 15.27552225    15
STARLINK-32909          
1 62894C 25024R   26179.23034722  .00037836  00000+0  13705-2 0  1794
2 62894  43.0037  61.3571 0001734 269.1781 269.8402 15.27557275    18
STARLINK-32901          
1 62895C 25024S   26179.17826389  .00064387  00000+0  23337-2 0  1799
2 62895  43.0011  61.2756 0001256 268.0876 139.9522 15.27523675    14
STARLINK-32890          
1 62896C 25024T   26179.27062500  .00012928  00000+0  46850-3 0  1798
2 62896  43.0038  60.3648 0001557 285.4331  73.7263 15.27555119    12
STARLINK-32893          
1 62897C 25024U   26179.18034722  .00064771  00000+0  23458-2 0  1795
2 62897  43.0006  61.0245 0001645 269.5170 248.8512 15.27548972    12
STARLINK-32902          
1 62898C 25024V   26179.21993056  .00045234  00000+0  16389-2 0  1792
2 62898  43.0015  60.7455 0001746 281.1694 116.4360 15.27544940    17
STARLINK-32661          
1 62899C 25024W   26179.25812500  .00023208  00000+0  84087-3 0  1799
2 62899  43.0013  60.8760 0001565 261.7132 204.6891 15.27555625    17
STARLINK-11552 [DTC]    
1 62907C 25027A   26179.17687500  .00065850  00000+0  51155-3 0  1792
2 62907  43.0010  41.7967 0001718 268.4885 236.7465 15.70801274    15
STARLINK-11561 [DTC]    
1 62908C 25027B   26179.22756944  .00025253  00000+0  19626-3 0  1798
2 62908  43.0010  41.1161 0001752 278.4067 304.1561 15.70811193    15
STARLINK-11567 [DTC]    
1 62909C 25027C   26179.17687500  .00082124  00000+0  63797-3 0  1792
2 62909  43.0010  42.0197 0001950 271.5756 143.4814 15.70792710    12
STARLINK-11569 [DTC]    
1 62910C 25027D   26179.24284722 -.00018782  00000+0 -14586-3 0  1794
2 62910  43.0009  41.1728 0001964 263.2299 345.7000 15.70849905    10
STARLINK-11537 [DTC]    
1 62911C 25027E   26179.16576389  .00088745  00000+0  68955-3 0  1792
2 62911  43.0011  41.7871 0001851 265.2018 207.1952 15.70784538    12
STARLINK-11565 [DTC]    
1 62912C 25027F   26179.18590278  .00073838  00000+0  57339-3 0  1799
2 62912  43.0009  41.2163 0001785 277.6169 129.1524 15.70806039    18
STARLINK-11564 [DTC]    
1 62913C 25027G   26179.24423611  .00016556  00000+0  12863-3 0  1790
2 62913  43.0013  41.4622 0001870 260.4028 236.1509 15.70821930    14
STARLINK-11566 [DTC]    
1 62914C 25027H   26179.20812500  .00034732  00000+0  26983-3 0  1790
2 62914  43.0013  41.7546 0001820 266.5328 355.5107 15.70814989    14
STARLINK-11555 [DTC]    
1 62915C 25027J   26179.18104167  .00074390  00000+0  57794-3 0  1799
2 62915  43.0010  41.9300 0001702 268.0393 195.5094 15.70794999    15
STARLINK-11430 [DTC]    
1 62916C 25027K   26179.19979167  .00063764  00000+0  49551-3 0  1796
2 62916  43.0011  41.9531 0001881 263.7036 251.0445 15.70794075    10
STARLINK-11560 [DTC]    
1 62917C 25027L   26179.22062500  .00023057  00000+0  17909-3 0  1798
2 62917  43.0012  41.3782 0001923 265.5941 187.4642 15.70824595    18
STARLINK-11562 [DTC]    
1 62918C 25027M   26179.25326389  .00006536  00000+0  50762-4 0  1798
2 62918  43.0010  41.0311 0001607 272.4612  65.5110 15.70834971    18
STARLINK-11457 [DTC]    
1 62919C 25027N   26179.26090278 -.00003517  00000+0 -27313-4 0  1799
2 62919  43.0011  40.8350 0001787 270.8532 170.4841 15.70840500    14
STARLINK-32921          
1 62920C 25027P   26179.21784722 -.00014384  00000+0 -52097-3 0  1790
2 62920  43.0012 224.5423 0001791 269.5445 235.7997 15.27586660    15
STARLINK-32917          
1 62921C 25027Q   26179.26437500 -.00025286  00000+0 -91583-3 0  1791
2 62921  42.9992 224.4580 0001522 268.7605  54.9329 15.27591492    14
STARLINK-32916          
1 62922C 25027R   26179.19006944 -.00001180  00000+0 -42746-4 0  1793
2 62922  43.0008 224.7423 0001576 267.1626  64.0253 15.27583820    13
STARLINK-32905          
1 62923C 25027S   26179.27062500 -.00019265  00000+0 -69758-3 0  1797
2 62923  42.9986 224.5762 0001329 272.7766  21.5712 15.27596319    19
STARLINK-32871          
1 62924C 25027T   26179.23729167 -.00020018  00000+0 -72490-3 0  1798
2 62924  42.9994 224.5556 0001558 270.4142 285.4040 15.27595598    10
STARLINK-32920          
1 62925C 25027U   26179.23451389 -.00028478  00000+0 -10313-2 0  1790
2 62925  43.0000 224.5235 0001498 266.3258 295.4273 15.27596593    15
STARLINK-32922          
1 62926C 25027V   26179.19006944 -.00007602  00000+0 -27527-3 0  1791
2 62926  42.9986 224.9757 0001371 264.4222 327.7224 15.27590068    16
STARLINK-32891          
1 62927C 25027W   26179.19979167 -.00011852  00000+0 -42920-3 0  1794
2 62927  42.9986 225.0076 0001365 262.8597 347.4570 15.27589344    11
STARLINK-32728          
1 62948C 25029A   26179.20812500  .00028725  00000+0  84917-3 0  1795
2 62948  53.1588  76.0179 0001142  94.6120 211.8440 15.34358102    14
STARLINK-32857          
1 62949C 25029B   26179.19909722  .00142610  00000+0  42092-2 0  1794
2 62949  53.1595  75.4704 0001361 101.6859  97.2315 15.34350754    13
STARLINK-32850          
1 62950C 25029C   26179.27548611  .00029537  00000+0  95042-3 0  1797
2 62950  53.1594  78.2034 0001260  94.1862  33.9817 15.31667603    14
STARLINK-32875          
1 62951C 25029D   26179.18034722  .00018242  00000+0  53921-3 0  1792
2 62951  53.1594  75.5293 0001408  75.1545  31.7534 15.34366127    15
STARLINK-32865          
1 62952C 25029E   26179.18798611  .00026074  00000+0  83897-3 0  1794
2 62952  53.1600  78.5602 0001291  89.7168 301.4456 15.31669460    16
STARLINK-32884          
1 62953C 25029F   26179.24631944  .00044652  00000+0  13206-2 0  1795
2 62953  53.1597  75.3574 0000970  86.3230 315.4753 15.34336880    16
STARLINK-32874          
1 62954C 25029G   26179.25673611  .00036564  00000+0  10812-2 0  1797
2 62954  53.1596  75.2147 0001258  68.9070  76.9633 15.34344589    10
STARLINK-32880          
1 62955C 25029H   26179.16854167  .00021267  00000+0  68424-3 0  1792
2 62955  53.1598  78.5480 0001363  92.3516 243.0220 15.31674266    16
STARLINK-32815          
1 62956C 25029J   26179.21159722  .00052207  00000+0  15437-2 0  1797
2 62956  53.1594  75.7265 0001265  69.2710  35.9423 15.34338427    15
STARLINK-32879          
1 62957C 25029K   26179.23451389  .00046214  00000+0  14871-2 0  1796
2 62957  53.1580  78.5989 0001060  74.1546  84.9481 15.31658111    10
STARLINK-32885          
1 62958C 25029L   26179.27895833  .00021679  00000+0  64111-3 0  1798
2 62958  53.1599  75.2699 0001312  69.0162 118.2698 15.34350495    18
STARLINK-32896          
1 62959C 25029M   26179.21784722  .00041971  00000+0  14154-2 0  1795
2 62959  53.1587  79.4021 0001015  76.3663 340.3744 15.30151574    11
STARLINK-32877          
1 62960C 25029N   26179.22756944  .00050137  00000+0  16909-2 0  1797
2 62960  53.1590  79.2876 0001229  71.6532  73.5761 15.30146305    13
STARLINK-32889          
1 62961C 25029P   26179.21437500  .01651000  00000+0  53871-1 0  1796
2 62961  53.1591  79.3863 0001133  95.1695 319.9234 15.30413111    11
STARLINK-32858          
1 62962C 25029Q   26179.23173611  .00042033  00000+0  14173-2 0  1791
2 62962  53.1583  78.6631 0001193  73.1624  43.2958 15.30156918    11
STARLINK-32882          
1 62963C 25029R   26179.22062500  .00042182  00000+0  12472-2 0  1790
2 62963  53.1594  75.4062 0001272  94.1103 200.5388 15.34347294    18
STARLINK-32887          
1 62964C 25029S   26179.21298611  .00040287  00000+0  11911-2 0  1795
2 62964  53.1590  75.8564 0001114  73.0602 330.0469 15.34350051    15
STARLINK-32836          
1 62965C 25029T   26179.23520833  .00020152  00000+0  59620-3 0  1791
2 62965  53.1589  75.9107 0001220  61.0539  23.5546 15.34338790    18
STARLINK-32888          
1 62966C 25029U   26179.24423611  .00041468  00000+0  13990-2 0  1791
2 62966  53.1589  79.1863 0001175  67.8969 186.6761 15.30138305    10
STARLINK-32897          
1 62967C 25029V   26179.26298611  .00029350  00000+0  86786-3 0  1794
2 62967  53.1580  77.2002 0001249  68.1472 167.2376 15.34350162    19
STARLINK-32863          
1 62968C 25029W   26179.20951389  .00053813  00000+0  17316-2 0  1790
2 62968  53.1592  78.5591 0001302  77.7398  20.6812 15.31654185    19
STARLINK-32894          
1 62969C 25029X   26179.23381944  .00035383  00000+0  11928-2 0  1793
2 62969  53.1582  78.7969 0001235  80.6150 331.6924 15.30167713    18
STARLINK-32826          
1 62970C 25029Y   26179.23659722 -.00183490  00000+0 -61735-2 0  1793
2 62970  53.1575  78.7144 0001379  68.7712  33.7770 15.30340138    10
